{
    "links": {
        "self": "http://www.neowsapp.com/rest/v1/neo/3333612?api_key=iIulBulltgU6a56xZRHN4H3l9WmuAYTsLGpBGhQ2"
    },
    "id": "3333612",
    "neo_reference_id": "3333612",
    "name": "(2006 KS1)",
    "designation": "2006 KS1",
    "nasa_jpl_url": "http://ssd.jpl.nasa.gov/sbdb.cgi?sstr=3333612",
    "absolute_magnitude_h": 25.4,
    "estimated_diameter": {
        "kilometers": {
            "estimated_diameter_min": 0.022108281,
            "estimated_diameter_max": 0.0494356193
        },
        "meters": {
            "estimated_diameter_min": 22.1082810359,
            "estimated_diameter_max": 49.435619262
        },
        "miles": {
            "estimated_diameter_min": 0.0137374447,
            "estimated_diameter_max": 0.0307178602
        },
        "feet": {
            "estimated_diameter_min": 72.5337327539,
            "estimated_diameter_max": 162.1903570994
        }
    },
    "is_potentially_hazardous_asteroid": false,
    "close_approach_data": [
        {
            "close_approach_date": "1926-06-11",
            "close_approach_date_full": "1926-Jun-11 22:15",
            "epoch_date_close_approach": -1374543900000,
            "relative_velocity": {
                "kilometers_per_second": "17.7349459721",
                "kilometers_per_hour": "63845.8054996208",
                "miles_per_hour": "39671.3006450283"
            },
            "miss_distance": {
                "astronomical": "0.4341143646",
                "lunar": "168.8704878294",
                "kilometers": "64942584.280563402",
                "miles": "40353450.6575708676"
            },
            "orbiting_body": "Earth"
        },
        {
            "close_approach_date": "1935-03-18",
            "close_approach_date_full": "1935-Mar-18 16:03",
            "epoch_date_close_approach": -1097913420000,
            "relative_velocity": {
                "kilometers_per_second": "5.9388940609",
                "kilometers_per_hour": "21380.0186193993",
                "miles_per_hour": "13284.7121249262"
            },
            "miss_distance": {
                "astronomical": "0.0754135418",
                "lunar": "29.3358677602",
                "kilometers": "11281705.222435966",
                "miles": "7010126.5613336908"
            },
            "orbiting_body": "Earth"
        },
        {
            "close_approach_date": "2006-05-06",
            "close_approach_date_full": "2006-May-06 11:25",
            "epoch_date_close_approach": 1146914700000,
            "relative_velocity": {
                "kilometers_per_second": "5.4220060181",
                "kilometers_per_hour": "19519.2216649828",
                "miles_per_hour": "12128.4852617778"
            },
            "miss_distance": {
                "astronomical": "0.0282267168",
                "lunar": "10.9801928352",
                "kilometers": "4222656.710373216",
                "miles": "2623837.2108777408"
            },
            "orbiting_body": "Earth"
        },
        {
            "close_approach_date": "2198-06-16",
            "close_approach_date_full": "2198-Jun-16 02:04",
            "epoch_date_close_approach": 7209396240000,
            "relative_velocity": {
                "kilometers_per_second": "17.5835266468",
                "kilometers_per_hour": "63300.6959286456",
                "miles_per_hour": "39332.5907563298"
            },
            "miss_distance": {
                "astronomical": "0.4303519376",
                "lunar": "167.4069037264",
                "kilometers": "64379733.215332912",
                "miles": "40003711.2232697056"
            },
            "orbiting_body": "Earth"
        }
    ],
    "orbital_data": {
        "orbit_id": "10",
        "orbit_determination_date": "2017-04-06 09:08:37",
        "first_observation_date": "2006-05-21",
        "last_observation_date": "2006-05-30",
        "data_arc_in_days": 9,
        "observations_used": 26,
        "orbit_uncertainty": "8",
        "minimum_orbit_intersection": ".0242519",
        "jupiter_tisserand_invariant": "4.548",
        "epoch_osculation": "2453878.5",
        "eccentricity": ".314671061440574",
        "semi_major_axis": "1.469348820538193",
        "inclination": "3.650907656492294",
        "ascending_node_longitude": "237.5967339544799",
        "orbital_period": "650.5576526091512",
        "perihelion_distance": "1.006987267552984",
        "perihelion_argument": "322.4041168705292",
        "aphelion_distance": "1.931710373523401",
        "perihelion_time": "2453839.262563825479",
        "mean_anomaly": "21.71287504831491",
        "mean_motion": ".5533714015293961",
        "equinox": "J2000",
        "orbit_class": {
            "orbit_class_type": "APO",
            "orbit_class_description": "Near-Earth asteroid orbits which cross the Earth’s orbit similar to that of 1862 Apollo",
            "orbit_class_range": "a (semi-major axis) > 1.0 AU; q (perihelion) < 1.017 AU"
        }
    },
    "is_sentry_object": false
}